*******************************************************************************
JPL/HORIZONS              1784 Benguella (1935 MG)         2023-Sep-04 11:14:09
Rec #:    1784 (+COV) Soln.date: 2023-Aug-22_10:47:34   # obs: 5750 (1935-2023)
 
IAU76/J2000 helio. ecliptic osc. elements (au, days, deg., period=Julian yrs):
 
  EPOCH=  2457243.5 ! 2015-Aug-09.00 (TDB)         Residual RMS= .25666
   EC= .1336860319721664   QR= 2.082663925887426   TP= 2456579.3459508242
   OM= 95.27985492152547   W=  184.7530571270371   IN= 1.472785024733682
   A= 2.404052113610285    MA= 175.61316980526     ADIST= 2.725440301333144
   PER= 3.72755            N= .26441632            ANGMOM= .026432451
   DAN= 2.72399            DDN= 2.08351            L= 280.031349
   B= -.1220237            MOID= 1.06613004        TP= 2013-Oct-13.8459508242
 
Asteroid physical parameters (km, seconds, rotational period in hours):
   GM= n.a.                RAD= 5.24               ROTPER= 41.035
   H= 12.19                G= .150                 B-V= n.a.
                           ALBEDO= .237            STYP= n.a.

ASTEROID comments: 
1: soln ref.= JPL#56, OCC=0
2: source=ORB
*******************************************************************************


*******************************************************************************
Ephemeris / API_USER Mon Sep  4 11:14:09 2023 Pasadena, USA      / Horizons
*******************************************************************************
Target body name: 1784 Benguella (1935 MG)        {source: JPL#56}
Center body name: Solar System Barycenter (0)     {source: DE441}
Center-site name: BODY CENTER
*******************************************************************************
Start time      : A.D. 2023-Aug-12 00:00:00.0000 TDB
Stop  time      : A.D. 2023-Aug-13 00:00:00.0000 TDB
Step-size       : 2880 minutes
*******************************************************************************
Center geodetic : 0.0, 0.0, 0.0                   {E-lon(deg),Lat(deg),Alt(km)}
Center cylindric: 0.0, 0.0, 0.0                   {E-lon(deg),Dxy(km),Dz(km)}
Center radii    : (undefined)
Small perturbers: Yes                             {source: SB441-N16}
Output units    : KM-S
Calendar mode   : Mixed Julian/Gregorian
Output type     : GEOMETRIC cartesian states
Output format   : 2 (position and velocity)
Reference frame : Ecliptic of J2000.0
*******************************************************************************
Initial IAU76/J2000 heliocentric ecliptic osculating elements (au, days, deg.):
  EPOCH=  2457243.5 ! 2015-Aug-09.00 (TDB)         Residual RMS= .25666        
   EC= .1336860319721664   QR= 2.082663925887426   TP= 2456579.3459508242      
   OM= 95.27985492152547   W=  184.7530571270371   IN= 1.472785024733682       
  Equivalent ICRF heliocentric cartesian coordinates (au, au/d):
   X=-3.154971570434489E-01  Y= 2.482388649195583E+00  Z= 1.078071947715940E+00
  VX=-9.642797761504493E-03 VY=-1.049086772264195E-03 VZ=-1.830912150081721E-04
Asteroid physical parameters (km, seconds, rotational period in hours):        
   GM= n.a.                RAD= 5.24               ROTPER= 41.035              
   H= 12.19                G= .150                 B-V= n.a.                   
                           ALBEDO= .237            STYP= n.a.                  
*******************************************************************************
JDTDB
   X     Y     Z
   VX    VY    VZ
*******************************************************************************
$$SOE
2460168.500000000 = A.D. 2023-Aug-12 00:00:00.0000 TDB 
 X =-2.960603657220049E+08 Y = 2.616496627000874E+08 Z = 6.960448806110606E+06
 VX=-1.031353583325225E+01 VY=-1.406403323852851E+01 VZ= 2.972572959006428E-01
$$EOE
*******************************************************************************
 
TIME

  Barycentric Dynamical Time ("TDB" or T_eph) output was requested. This
continuous coordinate time is equivalent to the relativistic proper time
of a clock at rest in a reference frame co-moving with the solar system
barycenter but outside the system's gravity well. It is the independent
variable in the solar system relativistic equations of motion.

  TDB runs at a uniform rate of one SI second per second and is independent
of irregularities in Earth's rotation.
 
CALENDAR SYSTEM

  Mixed calendar mode was active such that calendar dates after AD 1582-Oct-15
(if any) are in the modern Gregorian system. Dates prior to 1582-Oct-5 (if any)
are in the Julian calendar system, which is automatically extended for dates
prior to its adoption on 45-Jan-1 BC.  The Julian calendar is useful for
matching historical dates. The Gregorian calendar more accurately corresponds
to the Earth's orbital motion and seasons. A "Gregorian-only" calendar mode is
available if such physical events are the primary interest.

REFERENCE FRAME AND COORDINATES

  Ecliptic at the standard reference epoch

    Reference epoch: J2000.0
    X-Y plane: adopted Earth orbital plane at the reference epoch
               Note: IAU76 obliquity of 84381.448 arcseconds wrt ICRF X-Y plane
    X-axis   : ICRF
    Z-axis   : perpendicular to the X-Y plane in the directional (+ or -) sense
               of Earth's north pole at the reference epoch.

  Symbol meaning:

    JDTDB    Julian Day Number, Barycentric Dynamical Time
      X      X-component of position vector (km)
      Y      Y-component of position vector (km)
      Z      Z-component of position vector (km)
      VX     X-component of velocity vector (km/sec)                           
      VY     Y-component of velocity vector (km/sec)                           
      VZ     Z-component of velocity vector (km/sec)                           

ABERRATIONS AND CORRECTIONS

 Geometric state vectors have NO corrections or aberrations applied.

Computations by ...

    Solar System Dynamics Group, Horizons On-Line Ephemeris System
    4800 Oak Grove Drive, Jet Propulsion Laboratory
    Pasadena, CA  91109   USA

    General site: https://ssd.jpl.nasa.gov/
    Mailing list: https://ssd.jpl.nasa.gov/email_list.html
    System news : https://ssd.jpl.nasa.gov/horizons/news.html
    User Guide  : https://ssd.jpl.nasa.gov/horizons/manual.html
    Connect     : browser        https://ssd.jpl.nasa.gov/horizons/app.html#/x
                  API            https://ssd-api.jpl.nasa.gov/doc/horizons.html
                  command-line   telnet ssd.jpl.nasa.gov 6775
                  e-mail/batch   https://ssd.jpl.nasa.gov/ftp/ssd/hrzn_batch.txt
                  scripts        https://ssd.jpl.nasa.gov/ftp/ssd/SCRIPTS
    Author      : Jon.D.Giorgini@jpl.nasa.gov
*******************************************************************************
